[{"OBJECT_NAME":"JILIN-1 GAOFEN 3I","OBJECT_ID":"2020-065H","EPOCH":"2026-03-09T21:52:33.609504","MEAN_MOTION":15.70055987,"ECCENTRICITY":0.00105914,"INCLINATION":97.2419,"RA_OF_ASC_NODE":125.8258,"ARG_OF_PERICENTER":92.4806,"MEAN_ANOMALY":267.767,"EPHEMERIS_TYPE":0,"CLASSIFICATION_TYPE":"U","NORAD_CAT_ID":46461,"ELEMENT_SET_NO":999,"REV_AT_EPOCH":30463,"BSTAR":0.00089589772,"MEAN_MOTION_DOT":0.00109158,"MEAN_MOTION_DDOT":0},{"OBJECT_NAME":"STARLINK-11416 [DTC]","OBJECT_ID":"2025-008H","EPOCH":"2026-03-09T16:00:03.000096","MEAN_MOTION":15.7076383,"ECCENTRICITY":0.00017438,"INCLINATION":42.9999,"RA_OF_ASC_NODE":125.9543,"ARG_OF_PERICENTER":264.6665,"MEAN_ANOMALY":112.9544,"EPHEMERIS_TYPE":0,"CLASSIFICATION_TYPE":"U","NORAD_CAT_ID":62594,"ELEMENT_SET_NO":999,"REV_AT_EPOCH":600,"BSTAR":0.00098116831,"MEAN_MOTION_DOT":0.00126983,"MEAN_MOTION_DDOT":0}]
